ORBCOMM-X               
1 21576U 91050C   24342.46064290  .00000939  00000+0  29348-3 0  9991
2 21576  98.3705  46.7566 0004531  57.4790 302.6837 14.42962265754684
ORBCOMM FM01            
1 23545U 95017A   24342.03315284  .00009207  00000+0  10652-2 0  9995
2 23545  69.9637 191.8554 0007160 261.2244  98.8098 14.85779109584278
ORBCOMM FM02            
1 23546U 95017B   24342.10142806  .00012830  00000+0  14818-2 0  9996
2 23546  69.9657 211.3797 0009109 257.3607 102.6527 14.85711327583876
ORBCOMM FM08            
1 25112U 97084A   24342.22209255  .00003564  00000+0  10630-2 0  9990
2 25112  45.0121 208.5553 0006366   4.3148 355.7757 14.44498570413772
ORBCOMM FM10            
1 25113U 97084B   24342.10787463  .00003160  00000+0  95044-3 0  9995
2 25113  45.0133 211.1718 0004201 330.1006  29.9604 14.44344266413748
ORBCOMM FM11            
1 25114U 97084C   24341.94247013  .00003145  00000+0  95037-3 0  9994
2 25114  45.0119 212.2669 0005108 330.0646  29.9913 14.44119617413671
ORBCOMM FM12            
1 25115U 97084D   24342.11431220  .00003094  00000+0  93556-3 0  9997
2 25115  45.0126 211.2034 0004051 331.0572  29.0053 14.44124572413739
ORBCOMM FM09            
1 25116U 97084E   24341.92491409  .00002997  00000+0  90887-3 0  9996
2 25116  45.0130 212.8782 0005208 312.4708  47.5702 14.44047818413677
